{
  "type": "FeatureCollection",
  "features": [
    {
      "type": "Feature",
      "properties": {
        "norad_id": 41890,
        "name": "CYGFM07",
        "group": "weather",
        "lat": 2.3048201477932673,
        "lon": 24.42740592014145,
        "alt_km": 420.8917704862897,
        "timestamp": "2025-12-12T18:57:43.775037+00:00",
        "meta_object_name": "CYGFM07",
        "meta_object_id": "2016-078G",
        "meta_epoch": "2025-12-12T05:01:57.998784",
        "meta_mean_motion": 15.4996816,
        "meta_eccentricity": 0.00098228,
        "meta_inclination": 34.9485,
        "meta_ra_of_asc_node": 24.9286,
        "meta_arg_of_pericenter": 211.5002,
        "meta_mean_anomaly": 148.5132,
        "meta_ephemeris_type": 0,
        "meta_classification_type": "U",
        "meta_norad_cat_id": 41890,
        "meta_element_set_no": 999,
        "meta_rev_at_epoch": 49987,
        "meta_bstar": 0.00052255047,
        "meta_mean_motion_dot": 0.000303,
        "meta_mean_motion_ddot": 0,
        "tle_line1": "1 41890U 16078G   25346.20969906  .00030300  00000+0  52255-3 0  9992",
        "tle_line2": "2 41890  34.9485  24.9286 0009822 211.5002 148.5132 15.49968160499870"
      },
      "geometry": {
        "type": "Point",
        "coordinates": [
          24.42740592014145,
          2.3048201477932673
        ]
      }
    },
    {
      "type": "Feature",
      "properties": {
        "norad_id": 41891,
        "name": "CYGFM03",
        "group": "weather",
        "lat": -10.62917828427992,
        "lon": -141.36667287753744,
        "alt_km": 410.9350211775918,
        "timestamp": "2025-12-12T18:57:43.775047+00:00",
        "meta_object_name": "CYGFM03",
        "meta_object_id": "2016-078H",
        "meta_epoch": "2025-12-12T05:44:30.487200",
        "meta_mean_motion": 15.49868504,
        "meta_eccentricity": 0.00092421,
        "meta_inclination": 34.9437,
        "meta_ra_of_asc_node": 26.6529,
        "meta_arg_of_pericenter": 199.483,
        "meta_mean_anomaly": 160.5539,
        "meta_ephemeris_type": 0,
        "meta_classification_type": "U",
        "meta_norad_cat_id": 41891,
        "meta_element_set_no": 999,
        "meta_rev_at_epoch": 49985,
        "meta_bstar": 0.00051609525,
        "meta_mean_motion_dot": 0.00029811,
        "meta_mean_motion_ddot": 0,
        "tle_line1": "1 41891U 16078H   25346.23924175  .00029811  00000+0  51610-3 0  9994",
        "tle_line2": "2 41891  34.9437  26.6529 0009242 199.4830 160.5539 15.49868504499850"
      },
      "geometry": {
        "type": "Point",
        "coordinates": [
          -141.36667287753744,
          -10.62917828427992
        ]
      }
    },
    {
      "type": "Feature",
      "properties": {
        "norad_id": 43010,
        "name": "FENGYUN 3D",
        "group": "weather",
        "lat": -79.61821959592355,
        "lon": 73.32747035190825,
        "alt_km": 833.643403142235,
        "timestamp": "2025-12-12T18:57:43.775058+00:00",
        "meta_object_name": "FENGYUN 3D",
        "meta_object_id": "2017-072A",
        "meta_epoch": "2025-12-12T07:34:11.684928",
        "meta_mean_motion": 14.19685104,
        "meta_eccentricity": 9.213e-05,
        "meta_inclination": 98.9895,
        "meta_ra_of_asc_node": 312.6192,
        "meta_arg_of_pericenter": 183.6817,
        "meta_mean_anomaly": 176.4352,
        "meta_ephemeris_type": 0,
        "meta_classification_type": "U",
        "meta_norad_cat_id": 43010,
        "meta_element_set_no": 999,
        "meta_rev_at_epoch": 41847,
        "meta_bstar": 0.00027986419,
        "meta_mean_motion_dot": 5.46e-06,
        "meta_mean_motion_ddot": 0,
        "tle_line1": "1 43010U 17072A   25346.31541302  .00000546  00000+0  27986-3 0  9993",
        "tle_line2": "2 43010  98.9895 312.6192 0000921 183.6817 176.4352 14.19685104418479"
      },
      "geometry": {
        "type": "Point",
        "coordinates": [
          73.32747035190825,
          -79.61821959592355
        ]
      }
    },
    {
      "type": "Feature",
      "properties": {
        "norad_id": 43013,
        "name": "NOAA 20 (JPSS-1)",
        "group": "weather",
        "lat": 55.987841003361396,
        "lon": -90.1219573099708,
        "alt_km": 820.2129473916675,
        "timestamp": "2025-12-12T18:57:43.775070+00:00",
        "meta_object_name": "NOAA 20 (JPSS-1)",
        "meta_object_id": "2017-073A",
        "meta_epoch": "2025-12-12T06:51:10.908288",
        "meta_mean_motion": 14.19525553,
        "meta_eccentricity": 0.00021615,
        "meta_inclination": 98.7598,
        "meta_ra_of_asc_node": 282.5872,
        "meta_arg_of_pericenter": 87.7885,
        "meta_mean_anomaly": 272.3538,
        "meta_ephemeris_type": 0,
        "meta_classification_type": "U",
        "meta_norad_cat_id": 43013,
        "meta_element_set_no": 999,
        "meta_rev_at_epoch": 41795,
        "meta_bstar": 0.00010155491,
        "meta_mean_motion_dot": 1.7e-06,
        "meta_mean_motion_ddot": 0,
        "tle_line1": "1 43013U 17073A   25346.28554292  .00000170  00000+0  10155-3 0  9998",
        "tle_line2": "2 43013  98.7598 282.5872 0002161  87.7885 272.3538 14.19525553417952"
      },
      "geometry": {
        "type": "Point",
        "coordinates": [
          -90.1219573099708,
          55.987841003361396
        ]
      }
    },
    {
      "type": "Feature",
      "properties": {
        "norad_id": 43226,
        "name": "GOES 17",
        "group": "weather",
        "lat": -0.07709800408488392,
        "lon": -83.33613656266455,
        "alt_km": 35772.2598619005,
        "timestamp": "2025-12-12T18:57:43.775083+00:00",
        "meta_object_name": "GOES 17",
        "meta_object_id": "2018-022A",
        "meta_epoch": "2025-12-11T23:21:28.018944",
        "meta_mean_motion": 1.00271668,
        "meta_eccentricity": 0.0003289,
        "meta_inclination": 0.4581,
        "meta_ra_of_asc_node": 89.1115,
        "meta_arg_of_pericenter": 187.3128,
        "meta_mean_anomaly": 65.3748,
        "meta_ephemeris_type": 0,
        "meta_classification_type": "U",
        "meta_norad_cat_id": 43226,
        "meta_element_set_no": 999,
        "meta_rev_at_epoch": 2854,
        "meta_bstar": 0,
        "meta_mean_motion_dot": -1.74e-06,
        "meta_mean_motion_ddot": 0,
        "tle_line1": "1 43226U 18022A   25345.97324096 -.00000174  00000+0  00000+0 0  9990",
        "tle_line2": "2 43226   0.4581  89.1115 0003289 187.3128  65.3748  1.00271668 28547"
      },
      "geometry": {
        "type": "Point",
        "coordinates": [
          -83.33613656266455,
          -0.07709800408488392
        ]
      }
    },
    {
      "type": "Feature",
      "properties": {
        "norad_id": 43491,
        "name": "FENGYUN 2H",
        "group": "weather",
        "lat": 0.20437377509350574,
        "lon": 85.5031026863386,
        "alt_km": 35797.815842209995,
        "timestamp": "2025-12-12T18:57:43.775103+00:00",
        "meta_object_name": "FENGYUN 2H",
        "meta_object_id": "2018-050A",
        "meta_epoch": "2025-12-12T01:52:23.750688",
        "meta_mean_motion": 1.00271159,
        "meta_eccentricity": 0.00028701,
        "meta_inclination": 2.5495,
        "meta_ra_of_asc_node": 81.3354,
        "meta_arg_of_pericenter": 166.252,
        "meta_mean_anomaly": 300.9008,
        "meta_ephemeris_type": 0,
        "meta_classification_type": "U",
        "meta_norad_cat_id": 43491,
        "meta_element_set_no": 999,
        "meta_rev_at_epoch": 2756,
        "meta_bstar": 0,
        "meta_mean_motion_dot": -1.21e-06,
        "meta_mean_motion_ddot": 0,
        "tle_line1": "1 43491U 18050A   25346.07805267 -.00000121  00000+0  00000+0 0  9993",
        "tle_line2": "2 43491   2.5495  81.3354 0002870 166.2520 300.9008  1.00271159 27567"
      },
      "geometry": {
        "type": "Point",
        "coordinates": [
          85.5031026863386,
          0.20437377509350574
        ]
      }
    },
    {
      "type": "Feature",
      "properties": {
        "norad_id": 43689,
        "name": "METOP-C",
        "group": "weather",
        "lat": -18.339305894204916,
        "lon": -138.34803564720394,
        "alt_km": 826.1588070892376,
        "timestamp": "2025-12-12T18:57:43.775114+00:00",
        "meta_object_name": "METOP-C",
        "meta_object_id": "2018-087A",
        "meta_epoch": "2025-12-12T06:12:22.502592",
        "meta_mean_motion": 14.21484249,
        "meta_eccentricity": 0.00012588,
        "meta_inclination": 98.6932,
        "meta_ra_of_asc_node": 44.0357,
        "meta_arg_of_pericenter": 39.5257,
        "meta_mean_anomaly": 320.6012,
        "meta_ephemeris_type": 0,
        "meta_classification_type": "U",
        "meta_norad_cat_id": 43689,
        "meta_element_set_no": 999,
        "meta_rev_at_epoch": 36827,
        "meta_bstar": 0.00016561946,
        "meta_mean_motion_dot": 3.19e-06,
        "meta_mean_motion_ddot": 0,
        "tle_line1": "1 43689U 18087A   25346.25859378  .00000319  00000+0  16562-3 0  9996",
        "tle_line2": "2 43689  98.6932  44.0357 0001258  39.5257 320.6012 14.21484249368278"
      },
      "geometry": {
        "type": "Point",
        "coordinates": [
          -138.34803564720394,
          -18.339305894204916
        ]
      }
    }
  ]
}